CCSDS_OMM_VERS = 2.0
CREATION_DATE  = 
ORIGINATOR     = 

OBJECT_NAME    = ASTRO-H (HITOMI)
OBJECT_ID      = 2016-012A
CENTER_NAME    = EARTH
REF_FRAME      = TEME
TIME_SYSTEM    = UTC
MEAN_ELEMENT_THEORY = SGP/SGP4

EPOCH          = 2026-01-03T04:21:46.336320
MEAN_MOTION    = 15.09522684
ECCENTRICITY   = .0009575
INCLINATION    = 31.0010
RA_OF_ASC_NODE = 59.1233
ARG_OF_PERICENTER = 34.4418
MEAN_ANOMALY   = 325.6839

EPHEMERIS_TYPE = 0
CLASSIFICATION_TYPE = U
NORAD_CAT_ID   = 41337
ELEMENT_SET_NO = 999
REV_AT_EPOCH   = 54232
BSTAR          = .34864E-3
MEAN_MOTION_DOT = .5829E-4
MEAN_MOTION_DDOT = 0

CCSDS_OMM_VERS = 2.0
CREATION_DATE  = 
ORIGINATOR     = 

OBJECT_NAME    = HXMT (HUIYAN)
OBJECT_ID      = 2017-034A
CENTER_NAME    = EARTH
REF_FRAME      = TEME
TIME_SYSTEM    = UTC
MEAN_ELEMENT_THEORY = SGP/SGP4

EPOCH          = 2026-01-03T04:46:04.724256
MEAN_MOTION    = 15.16549824
ECCENTRICITY   = .0032317
INCLINATION    = 43.0156
RA_OF_ASC_NODE = 20.5260
ARG_OF_PERICENTER = 183.1348
MEAN_ANOMALY   = 176.9301

EPHEMERIS_TYPE = 0
CLASSIFICATION_TYPE = U
NORAD_CAT_ID   = 42758
ELEMENT_SET_NO = 999
REV_AT_EPOCH   = 47259
BSTAR          = .51774E-3
MEAN_MOTION_DOT = .10195E-3
MEAN_MOTION_DDOT = 0

CCSDS_OMM_VERS = 2.0
CREATION_DATE  = 
ORIGINATOR     = 

OBJECT_NAME    = CZ-2C R/B
OBJECT_ID      = 2018-054D
CENTER_NAME    = EARTH
REF_FRAME      = TEME
TIME_SYSTEM    = UTC
MEAN_ELEMENT_THEORY = SGP/SGP4

EPOCH          = 2026-01-03T03:19:02.238240
MEAN_MOTION    = 15.79401771
ECCENTRICITY   = .0012246
INCLINATION    = 35.1340
RA_OF_ASC_NODE = 35.2703
ARG_OF_PERICENTER = 357.0571
MEAN_ANOMALY   = 3.0090

EPHEMERIS_TYPE = 0
CLASSIFICATION_TYPE = U
NORAD_CAT_ID   = 43521
ELEMENT_SET_NO = 999
REV_AT_EPOCH   = 41843
BSTAR          = .87718E-3
MEAN_MOTION_DOT = .168913E-2
MEAN_MOTION_DDOT = 0

CCSDS_OMM_VERS = 2.0
CREATION_DATE  = 
ORIGINATOR     = 

OBJECT_NAME    = SAOCOM 1A
OBJECT_ID      = 2018-076A
CENTER_NAME    = EARTH
REF_FRAME      = TEME
TIME_SYSTEM    = UTC
MEAN_ELEMENT_THEORY = SGP/SGP4

EPOCH          = 2026-01-03T08:13:38.337312
MEAN_MOTION    = 14.82161490
ECCENTRICITY   = .0001261
INCLINATION    = 97.8862
RA_OF_ASC_NODE = 192.4511
ARG_OF_PERICENTER = 88.3559
MEAN_ANOMALY   = 271.7798

EPHEMERIS_TYPE = 0
CLASSIFICATION_TYPE = U
NORAD_CAT_ID   = 43641
ELEMENT_SET_NO = 999
REV_AT_EPOCH   = 39168
BSTAR          = -.79054E-6
MEAN_MOTION_DOT = -.58E-6
MEAN_MOTION_DDOT = 0

CCSDS_OMM_VERS = 2.0
CREATION_DATE  = 
ORIGINATOR     = 

OBJECT_NAME    = H-2A R/B
OBJECT_ID      = 2018-084L
CENTER_NAME    = EARTH
REF_FRAME      = TEME
TIME_SYSTEM    = UTC
MEAN_ELEMENT_THEORY = SGP/SGP4

EPOCH          = 2026-01-03T02:24:23.269248
MEAN_MOTION    = 15.38316577
ECCENTRICITY   = .0026019
INCLINATION    = 98.8759
RA_OF_ASC_NODE = 206.6217
ARG_OF_PERICENTER = 251.3277
MEAN_ANOMALY   = 108.5138

EPHEMERIS_TYPE = 0
CLASSIFICATION_TYPE = U
NORAD_CAT_ID   = 43682
ELEMENT_SET_NO = 999
REV_AT_EPOCH   = 39568
BSTAR          = .81738E-3
MEAN_MOTION_DOT = .31212E-3
MEAN_MOTION_DDOT = 0

CCSDS_OMM_VERS = 2.0
CREATION_DATE  = 
ORIGINATOR     = 

OBJECT_NAME    = SAOCOM 1B
OBJECT_ID      = 2020-059A
CENTER_NAME    = EARTH
REF_FRAME      = TEME
TIME_SYSTEM    = UTC
MEAN_ELEMENT_THEORY = SGP/SGP4

EPOCH          = 2026-01-03T04:06:57.950784
MEAN_MOTION    = 14.82166536
ECCENTRICITY   = .0001465
INCLINATION    = 97.8839
RA_OF_ASC_NODE = 191.3808
ARG_OF_PERICENTER = 82.6789
MEAN_ANOMALY   = 277.4591

EPHEMERIS_TYPE = 0
CLASSIFICATION_TYPE = U
NORAD_CAT_ID   = 46265
ELEMENT_SET_NO = 999
REV_AT_EPOCH   = 28904
BSTAR          = .84829E-4
MEAN_MOTION_DOT = .623E-5
MEAN_MOTION_DDOT = 0

CCSDS_OMM_VERS = 2.0
CREATION_DATE  = 
ORIGINATOR     = 

OBJECT_NAME    = CSS (TIANHE)
OBJECT_ID      = 2021-035A
CENTER_NAME    = EARTH
REF_FRAME      = TEME
TIME_SYSTEM    = UTC
MEAN_ELEMENT_THEORY = SGP/SGP4

EPOCH          = 2026-01-03T02:27:16.953120
MEAN_MOTION    = 15.60118747
ECCENTRICITY   = .0010349
INCLINATION    = 41.4661
RA_OF_ASC_NODE = 246.9310
ARG_OF_PERICENTER = 209.1942
MEAN_ANOMALY   = 150.8319

EPHEMERIS_TYPE = 0
CLASSIFICATION_TYPE = U
NORAD_CAT_ID   = 48274
ELEMENT_SET_NO = 999
REV_AT_EPOCH   = 26736
BSTAR          = .38473E-3
MEAN_MOTION_DOT = .32013E-3
MEAN_MOTION_DDOT = 0

CCSDS_OMM_VERS = 2.0
CREATION_DATE  = 
ORIGINATOR     = 

OBJECT_NAME    = COSMOS 2550
OBJECT_ID      = 2021-056A
CENTER_NAME    = EARTH
REF_FRAME      = TEME
TIME_SYSTEM    = UTC
MEAN_ELEMENT_THEORY = SGP/SGP4

EPOCH          = 2026-01-02T18:54:51.578208
MEAN_MOTION    = 15.33828757
ECCENTRICITY   = .00083404
INCLINATION    = 67.1441
RA_OF_ASC_NODE = 240.2690
ARG_OF_PERICENTER = 269.2800
MEAN_ANOMALY   = 90.7399

EPHEMERIS_TYPE = 0
CLASSIFICATION_TYPE = U
NORAD_CAT_ID   = 48865
ELEMENT_SET_NO = 999
REV_AT_EPOCH   = 25335
BSTAR          = .775845E-6
MEAN_MOTION_DOT = -.166E-5
MEAN_MOTION_DDOT = 0

CCSDS_OMM_VERS = 2.0
CREATION_DATE  = 
ORIGINATOR     = 

OBJECT_NAME    = CZ-2C R/B
OBJECT_ID      = 2022-058K
CENTER_NAME    = EARTH
REF_FRAME      = TEME
TIME_SYSTEM    = UTC
MEAN_ELEMENT_THEORY = SGP/SGP4

EPOCH          = 2026-01-03T03:48:34.333344
MEAN_MOTION    = 15.49814438
ECCENTRICITY   = .0043774
INCLINATION    = 50.1906
RA_OF_ASC_NODE = 294.2242
ARG_OF_PERICENTER = 286.2640
MEAN_ANOMALY   = 73.3516

EPHEMERIS_TYPE = 0
CLASSIFICATION_TYPE = U
NORAD_CAT_ID   = 52794
ELEMENT_SET_NO = 999
REV_AT_EPOCH   = 19995
BSTAR          = .72489E-3
MEAN_MOTION_DOT = .42541E-3
MEAN_MOTION_DDOT = 0

CCSDS_OMM_VERS = 2.0
CREATION_DATE  = 
ORIGINATOR     = 

OBJECT_NAME    = CZ-2C R/B
OBJECT_ID      = 2022-132E
CENTER_NAME    = EARTH
REF_FRAME      = TEME
TIME_SYSTEM    = UTC
MEAN_ELEMENT_THEORY = SGP/SGP4

EPOCH          = 2026-01-02T23:08:46.199904
MEAN_MOTION    = 15.56316525
ECCENTRICITY   = .0019036
INCLINATION    = 97.2936
RA_OF_ASC_NODE = 4.5901
ARG_OF_PERICENTER = 342.3914
MEAN_ANOMALY   = 17.6679

EPHEMERIS_TYPE = 0
CLASSIFICATION_TYPE = U
NORAD_CAT_ID   = 54039
ELEMENT_SET_NO = 999
REV_AT_EPOCH   = 18013
BSTAR          = .73082E-3
MEAN_MOTION_DOT = .51984E-3
MEAN_MOTION_DDOT = 0

CCSDS_OMM_VERS = 2.0
CREATION_DATE  = 
ORIGINATOR     = 

OBJECT_NAME    = GSLV R/B
OBJECT_ID      = 2022-138AN
CENTER_NAME    = EARTH
REF_FRAME      = TEME
TIME_SYSTEM    = UTC
MEAN_ELEMENT_THEORY = SGP/SGP4

EPOCH          = 2026-01-03T01:22:25.202496
MEAN_MOTION    = 14.96267382
ECCENTRICITY   = .0023128
INCLINATION    = 87.3820
RA_OF_ASC_NODE = 188.3338
ARG_OF_PERICENTER = 35.2649
MEAN_ANOMALY   = 325.0106

EPHEMERIS_TYPE = 0
CLASSIFICATION_TYPE = U
NORAD_CAT_ID   = 54149
ELEMENT_SET_NO = 999
REV_AT_EPOCH   = 17411
BSTAR          = .48368E-3
MEAN_MOTION_DOT = .5516E-4
MEAN_MOTION_DDOT = 0

CCSDS_OMM_VERS = 2.0
CREATION_DATE  = 
ORIGINATOR     = 

OBJECT_NAME    = XRISM
OBJECT_ID      = 2023-137A
CENTER_NAME    = EARTH
REF_FRAME      = TEME
TIME_SYSTEM    = UTC
MEAN_ELEMENT_THEORY = SGP/SGP4

EPOCH          = 2026-01-03T02:42:37.063008
MEAN_MOTION    = 15.10622355
ECCENTRICITY   = .0007642
INCLINATION    = 31.0034
RA_OF_ASC_NODE = 347.5285
ARG_OF_PERICENTER = 102.1359
MEAN_ANOMALY   = 258.0136

EPHEMERIS_TYPE = 0
CLASSIFICATION_TYPE = U
NORAD_CAT_ID   = 57800
ELEMENT_SET_NO = 999
REV_AT_EPOCH   = 12786
BSTAR          = .63274E-3
MEAN_MOTION_DOT = .10827E-3
MEAN_MOTION_DDOT = 0

CCSDS_OMM_VERS = 2.0
CREATION_DATE  = 
ORIGINATOR     = 

OBJECT_NAME    = ACS3
OBJECT_ID      = 2024-077B
CENTER_NAME    = EARTH
REF_FRAME      = TEME
TIME_SYSTEM    = UTC
MEAN_ELEMENT_THEORY = SGP/SGP4

EPOCH          = 2026-01-03T02:55:57.610848
MEAN_MOTION    = 13.86662642
ECCENTRICITY   = .0069359
INCLINATION    = 97.2522
RA_OF_ASC_NODE = 318.9498
ARG_OF_PERICENTER = 284.9420
MEAN_ANOMALY   = 74.4070

EPHEMERIS_TYPE = 0
CLASSIFICATION_TYPE = U
NORAD_CAT_ID   = 59588
ELEMENT_SET_NO = 999
REV_AT_EPOCH   = 8510
BSTAR          = .2586E-1
MEAN_MOTION_DOT = .3075E-3
MEAN_MOTION_DDOT = 0

CCSDS_OMM_VERS = 2.0
CREATION_DATE  = 
ORIGINATOR     = 

OBJECT_NAME    = SZ-21 MODULE
OBJECT_ID      = 2025-246C
CENTER_NAME    = EARTH
REF_FRAME      = TEME
TIME_SYSTEM    = UTC
MEAN_ELEMENT_THEORY = SGP/SGP4

EPOCH          = 2026-01-03T00:10:39.879264
MEAN_MOTION    = 15.63793066
ECCENTRICITY   = .0002323
INCLINATION    = 41.4755
RA_OF_ASC_NODE = 246.1963
ARG_OF_PERICENTER = 25.4667
MEAN_ANOMALY   = 334.6288

EPHEMERIS_TYPE = 0
CLASSIFICATION_TYPE = U
NORAD_CAT_ID   = 66515
ELEMENT_SET_NO = 999
REV_AT_EPOCH   = 777
BSTAR          = .42308E-3
MEAN_MOTION_DOT = .40642E-3
MEAN_MOTION_DDOT = 0

